GSAT0101 (PRN E11)      
1 37846U 11060A   23161.06894713 -.00000087  00000+0  00000+0 0  9991
2 37846  57.0939  11.6317 0004037  45.0355 315.0394  1.70475897 72448
GSAT0102 (PRN E12)      
1 37847U 11060B   23160.70093458 -.00000086  00000+0  00000+0 0  9998
2 37847  57.0946  11.6416 0003536  16.4556 164.2234  1.70475236 72315
GSAT0103 (PRN E19)      
1 38857U 12055A   23161.10774863  .00000055  00000+0  00000+0 0  9991
2 38857  55.2552 131.8635 0005572 273.5020  86.3999  1.70473546 66342
GSAT0104 (PRN E20)      
1 38858U 12055B   23160.49074785  .00000055  00000+0  00000+0 0  9999
2 38858  55.2551 131.8820 0003007 276.3488  83.5809  1.70473781 66304
GSAT0201 (PRN E18)      
1 40128U 14050A   23159.48673942 -.00000076  00000+0  00000+0 0  9990
2 40128  50.0150 318.0777 1612077 137.0100 236.8036  1.85518868 57827
GSAT0202 (PRN E14)      
1 40129U 14050B   23159.74643631 -.00000077  00000+0  00000+0 0  9993
2 40129  50.0350 317.1371 1609701 137.8307 235.7652  1.85519511 59995
GSAT0203 (PRN E26)      
1 40544U 15017A   23159.67533330 -.00000083  00000+0  00000+0 0  9991
2 40544  56.8891  11.6542 0000982 275.9961  84.0371  1.70475690 50370
GSAT0204 (PRN E22)      
1 40545U 15017B   23159.92875535 -.00000084  00000+0  00000+0 0  9997
2 40545  56.8953  11.6611 0000812 207.3427 152.6969  1.70475419 51044
GSAT0205 (PRN E24)      
1 40889U 15045A   23160.28328515 -.00000012  00000+0  00000+0 0  9992
2 40889  55.4066 252.1040 0003518  24.0265 336.0393  1.70473938 48198
GSAT0206 (PRN E30)      
1 40890U 15045B   23159.91739921 -.00000009  00000+0  00000+0 0  9995
2 40890  55.4062 252.1097 0001679  10.5901 349.4645  1.70473918 48210
GSAT0209 (PRN E09)      
1 41174U 15079A   23154.22317601  .00000071  00000+0  00000+0 0  9992
2 41174  55.2701 131.7587 0005419 306.3746  53.5439  1.70474208 45853
GSAT0208 (PRN E08)      
1 41175U 15079B   23160.89515935  .00000054  00000+0  00000+0 0  9994
2 41175  55.2712 131.5738 0004669 306.4626  53.4592  1.70474049 46545
GSAT0211 (PRN E02)      
1 41549U 16030A   23160.42965794 -.00000013  00000+0  00000+0 0  9994
2 41549  55.5536 252.0666 0002903 314.8996  45.1256  1.70473745 43834
GSAT0210 (PRN E01)      
1 41550U 16030B   23160.72119996 -.00000015  00000+0  00000+0 0  9996
2 41550  55.5520 252.0597 0001891 271.6603  88.3655  1.70473930 43830
GSAT0207 (PRN E07)      
1 41859U 16069A   23160.96949613  .00000054  00000+0  00000+0 0  9995
2 41859  54.9352 131.6667 0005506 295.6248  64.2834  1.70473996 40815
GSAT0212 (PRN E03)      
1 41860U 16069B   23160.23767327  .00000054  00000+0  00000+0 0  9997
2 41860  54.9323 131.6840 0004105 314.4588  45.4707  1.70474331 40835
GSAT0213 (PRN E04)      
1 41861U 16069C   23160.01648118  .00000053  00000+0  00000+0 0  9999
2 41861  54.9346 131.6958 0005552 279.4777  80.4219  1.70472915 40695
GSAT0214 (PRN E05)      
1 41862U 16069D   23160.16364172  .00000054  00000+0  00000+0 0  9992
2 41862  54.9335 131.6860 0004582 281.8541  78.0573  1.70472877 40822
GSAT0215 (PRN E21)      
1 43055U 17079A   23161.23995492 -.00000018  00000+0  00000+0 0  9995
2 43055  55.5288 251.8713 0002171 260.5780  99.4429  1.70474623 34185
GSAT0216 (PRN E25)      
1 43056U 17079B   23159.77219955 -.00000007  00000+0  00000+0 0  9993
2 43056  55.5304 251.9117 0003450 273.5352  86.4773  1.70474844 34154
GSAT0217 (PRN E27)      
1 43057U 17079C   23159.40595190 -.00000004  00000+0  00000+0 0  9999
2 43057  55.5284 251.9209 0002963 289.0107  71.0105  1.70474724 34158
GSAT0218 (PRN E31)      
1 43058U 17079D   23160.79914550 -.00000015  00000+0  00000+0 0  9991
2 43058  55.5279 251.8800 0004012 269.0973  90.9042  1.70474718 34170
GSAT0221 (PRN E15)      
1 43564U 18060A   23160.11194990 -.00000084  00000+0  00000+0 0  9994
2 43564  57.2699  11.5484 0002068 314.3966  45.6301  1.70475523 30346
GSAT0222 (PRN E33)      
1 43565U 18060B   23160.91844917 -.00000087  00000+0  00000+0 0  9997
2 43565  57.2723  11.5275 0002072 334.2379  25.7942  1.70475485 30401
GSAT0219 (PRN E36)      
1 43566U 18060C   23159.96578818 -.00000083  00000+0  00000+0 0  9991
2 43566  57.2727  11.5554 0001877 348.4991  11.5406  1.70475563 30365
GSAT0220 (PRN E13)      
1 43567U 18060D   23156.08006801 -.00000070  00000+0  00000+0 0  9996
2 43567  57.2715  11.6609 0001942 341.1803  18.8688  1.70475324 30288
GSAT0223 (PRN E34)      
1 49809U 21116A   23160.36987500 -.00000085  00000+0  00000+0 0  9993
2 49809  57.2641  11.4410 0001816 125.0846  77.9352  1.70475331  9362
GSAT0224 (PRN E10)      
1 49810U 21116B   23157.21785559 -.00000073  00000+0  00000+0 0  9992
2 49810  57.2641  11.5246 0001882  97.8470  83.1924  1.70475417  9330
